[{"OBJECT_NAME":"YAOGAN-36 02B","OBJECT_ID":"2022-133B","EPOCH":"2026-03-09T22:42:31.775904","MEAN_MOTION":15.30199518,"ECCENTRICITY":0.00056841,"INCLINATION":34.9983,"RA_OF_ASC_NODE":22.5268,"ARG_OF_PERICENTER":273.0351,"MEAN_ANOMALY":86.9715,"EPHEMERIS_TYPE":0,"CLASSIFICATION_TYPE":"U","NORAD_CAT_ID":54043,"ELEMENT_SET_NO":999,"REV_AT_EPOCH":18962,"BSTAR":0.00051218814,"MEAN_MOTION_DOT":0.00015352,"MEAN_MOTION_DDOT":0},{"OBJECT_NAME":"STARLINK-35379","OBJECT_ID":"2025-235AC","EPOCH":"2026-03-09T17:20:58.636896","MEAN_MOTION":15.30199465,"ECCENTRICITY":9.47e-5,"INCLINATION":53.1567,"RA_OF_ASC_NODE":245.3149,"ARG_OF_PERICENTER":82.2001,"MEAN_ANOMALY":277.9107,"EPHEMERIS_TYPE":0,"CLASSIFICATION_TYPE":"U","NORAD_CAT_ID":66084,"ELEMENT_SET_NO":999,"REV_AT_EPOCH":2292,"BSTAR":0.0008792672,"MEAN_MOTION_DOT":0.00025772,"MEAN_MOTION_DDOT":0}]
